{
  "type": "FeatureCollection",
  "features": [
    {
      "type": "Feature",
      "properties": {
        "norad_id": 37836,
        "name": "EUTELSAT 16A",
        "group": "eutelsat",
        "lat": 0.08280838771247319,
        "lon": 85.56312514324568,
        "alt_km": 35811.477581417836,
        "timestamp": "2025-12-20T22:39:10.316714+00:00",
        "meta_object_name": "EUTELSAT 16A",
        "meta_object_id": "2011-057A",
        "meta_epoch": "2025-12-20T06:27:32.521824",
        "meta_mean_motion": 1.00269222,
        "meta_eccentricity": 0.00058619,
        "meta_inclination": 0.06,
        "meta_ra_of_asc_node": 337.379,
        "meta_arg_of_pericenter": 292.999,
        "meta_mean_anomaly": 291.622,
        "meta_ephemeris_type": 0,
        "meta_classification_type": "U",
        "meta_norad_cat_id": 37836,
        "meta_element_set_no": 999,
        "meta_rev_at_epoch": 553,
        "meta_bstar": 0,
        "meta_mean_motion_dot": 1.28e-06,
        "meta_mean_motion_ddot": 0,
        "tle_line1": "1 37836U 11057A   25354.26912641  .00000128  00000+0  00000+0 0  9990",
        "tle_line2": "2 37836   0.0600 337.3790 0005861 292.9990 291.6220  1.00269222  5536"
      },
      "geometry": {
        "type": "Point",
        "coordinates": [
          85.56312514324568,
          0.08280838771247319
        ]
      }
    },
    {
      "type": "Feature",
      "properties": {
        "norad_id": 38992,
        "name": "EUTELSAT 21B",
        "group": "eutelsat",
        "lat": 0.09045104724318062,
        "lon": 91.15407186764692,
        "alt_km": 35800.64473206313,
        "timestamp": "2025-12-20T22:39:10.316725+00:00",
        "meta_object_name": "EUTELSAT 21B",
        "meta_object_id": "2012-062B",
        "meta_epoch": "2025-12-20T13:20:00.517056",
        "meta_mean_motion": 1.00269096,
        "meta_eccentricity": 0.00032733,
        "meta_inclination": 0.0689,
        "meta_ra_of_asc_node": 339.9936,
        "meta_arg_of_pericenter": 293.2201,
        "meta_mean_anomaly": 37.7784,
        "meta_ephemeris_type": 0,
        "meta_classification_type": "U",
        "meta_norad_cat_id": 38992,
        "meta_element_set_no": 999,
        "meta_rev_at_epoch": 4803,
        "meta_bstar": 0,
        "meta_mean_motion_dot": 1.53e-06,
        "meta_mean_motion_ddot": 0,
        "tle_line1": "1 38992U 12062B   25354.55556154  .00000153  00000+0  00000+0 0  9994",
        "tle_line2": "2 38992   0.0689 339.9936 0003273 293.2201  37.7784  1.00269096 48036"
      },
      "geometry": {
        "type": "Point",
        "coordinates": [
          91.15407186764692,
          0.09045104724318062
        ]
      }
    },
    {
      "type": "Feature",
      "properties": {
        "norad_id": 39020,
        "name": "EUTELSAT 70B",
        "group": "eutelsat",
        "lat": 0.06027367688576261,
        "lon": 139.99928812186513,
        "alt_km": 35793.51174240306,
        "timestamp": "2025-12-20T22:39:10.316735+00:00",
        "meta_object_name": "EUTELSAT 70B",
        "meta_object_id": "2012-069A",
        "meta_epoch": "2025-12-20T10:08:33.853056",
        "meta_mean_motion": 1.00271448,
        "meta_eccentricity": 0.00042783,
        "meta_inclination": 0.0611,
        "meta_ra_of_asc_node": 4.4052,
        "meta_arg_of_pericenter": 249.3887,
        "meta_mean_anomaly": 58.0942,
        "meta_ephemeris_type": 0,
        "meta_classification_type": "U",
        "meta_norad_cat_id": 39020,
        "meta_element_set_no": 999,
        "meta_rev_at_epoch": 4771,
        "meta_bstar": 0,
        "meta_mean_motion_dot": -2e-07,
        "meta_mean_motion_ddot": 0,
        "tle_line1": "1 39020U 12069A   25354.42261404 -.00000020  00000+0  00000+0 0  9995",
        "tle_line2": "2 39020   0.0611   4.4052 0004278 249.3887  58.0942  1.00271448 47715"
      },
      "geometry": {
        "type": "Point",
        "coordinates": [
          139.99928812186513,
          0.06027367688576261
        ]
      }
    },
    {
      "type": "Feature",
      "properties": {
        "norad_id": 39122,
        "name": "EUTELSAT 117 WEST A",
        "group": "eutelsat",
        "lat": -0.0077642148965742135,
        "lon": -47.20016460122315,
        "alt_km": 35775.85989420804,
        "timestamp": "2025-12-20T22:39:10.316746+00:00",
        "meta_object_name": "EUTELSAT 117 WEST A",
        "meta_object_id": "2013-012A",
        "meta_epoch": "2025-12-20T10:15:38.712960",
        "meta_mean_motion": 1.00274588,
        "meta_eccentricity": 0.00028226,
        "meta_inclination": 0.0305,
        "meta_ra_of_asc_node": 302.0312,
        "meta_arg_of_pericenter": 332.7573,
        "meta_mean_anomaly": 211.6045,
        "meta_ephemeris_type": 0,
        "meta_classification_type": "U",
        "meta_norad_cat_id": 39122,
        "meta_element_set_no": 999,
        "meta_rev_at_epoch": 4664,
        "meta_bstar": 0,
        "meta_mean_motion_dot": 1e-07,
        "meta_mean_motion_ddot": 0,
        "tle_line1": "1 39122U 13012A   25354.42753140  .00000010  00000+0  00000+0 0  9998",
        "tle_line2": "2 39122   0.0305 302.0312 0002822 332.7573 211.6045  1.00274588 46646"
      },
      "geometry": {
        "type": "Point",
        "coordinates": [
          -47.20016460122315,
          -0.0077642148965742135
        ]
      }
    },
    {
      "type": "Feature",
      "properties": {
        "norad_id": 39163,
        "name": "EUTELSAT 7B",
        "group": "eutelsat",
        "lat": 0.09054840770280576,
        "lon": 76.59644025437217,
        "alt_km": 35793.915485740865,
        "timestamp": "2025-12-20T22:39:10.316757+00:00",
        "meta_object_name": "EUTELSAT 7B",
        "meta_object_id": "2013-022A",
        "meta_epoch": "2025-12-20T06:24:55.272960",
        "meta_mean_motion": 1.00270737,
        "meta_eccentricity": 0.0004381,
        "meta_inclination": 0.0652,
        "meta_ra_of_asc_node": 359.0101,
        "meta_arg_of_pericenter": 323.4978,
        "meta_mean_anomaly": 229.8249,
        "meta_ephemeris_type": 0,
        "meta_classification_type": "U",
        "meta_norad_cat_id": 39163,
        "meta_element_set_no": 999,
        "meta_rev_at_epoch": 4615,
        "meta_bstar": 0,
        "meta_mean_motion_dot": 7.2e-07,
        "meta_mean_motion_ddot": 0,
        "tle_line1": "1 39163U 13022A   25354.26730640  .00000072  00000+0  00000+0 0  9994",
        "tle_line2": "2 39163   0.0652 359.0101 0004381 323.4978 229.8249  1.00270737 46157"
      },
      "geometry": {
        "type": "Point",
        "coordinates": [
          76.59644025437217,
          0.09054840770280576
        ]
      }
    },
    {
      "type": "Feature",
      "properties": {
        "norad_id": 39612,
        "name": "EXPRESS-AT1",
        "group": "eutelsat",
        "lat": 0.021368307787772364,
        "lon": 125.55163917029076,
        "alt_km": 35781.79951334482,
        "timestamp": "2025-12-20T22:39:10.316768+00:00",
        "meta_object_name": "EXPRESS-AT1",
        "meta_object_id": "2014-010A",
        "meta_epoch": "2025-12-20T16:55:13.052352",
        "meta_mean_motion": 1.00274267,
        "meta_eccentricity": 8.84e-05,
        "meta_inclination": 0.0178,
        "meta_ra_of_asc_node": 323.8869,
        "meta_arg_of_pericenter": 178.6158,
        "meta_mean_anomaly": 256.8348,
        "meta_ephemeris_type": 0,
        "meta_classification_type": "U",
        "meta_norad_cat_id": 39612,
        "meta_element_set_no": 999,
        "meta_rev_at_epoch": 4302,
        "meta_bstar": 0,
        "meta_mean_motion_dot": 1.02e-06,
        "meta_mean_motion_ddot": 0,
        "tle_line1": "1 39612U 14010A   25354.70501218  .00000102  00000+0  00000+0 0  9991",
        "tle_line2": "2 39612   0.0178 323.8869 0000884 178.6158 256.8348  1.00274267 43028"
      },
      "geometry": {
        "type": "Point",
        "coordinates": [
          125.55163917029076,
          0.021368307787772364
        ]
      }
    },
    {
      "type": "Feature",
      "properties": {
        "norad_id": 39613,
        "name": "EXPRESS-AT2",
        "group": "eutelsat",
        "lat": -0.03131634151571749,
        "lon": -150.6018815052952,
        "alt_km": 35785.60176235573,
        "timestamp": "2025-12-20T22:39:10.316779+00:00",
        "meta_object_name": "EXPRESS-AT2",
        "meta_object_id": "2014-010B",
        "meta_epoch": "2025-12-20T14:07:41.615040",
        "meta_mean_motion": 1.00271282,
        "meta_eccentricity": 0.00010295,
        "meta_inclination": 0.0178,
        "meta_ra_of_asc_node": 326.0495,
        "meta_arg_of_pericenter": 324.7522,
        "meta_mean_anomaly": 150.3983,
        "meta_ephemeris_type": 0,
        "meta_classification_type": "U",
        "meta_norad_cat_id": 39613,
        "meta_element_set_no": 999,
        "meta_rev_at_epoch": 4271,
        "meta_bstar": 0,
        "meta_mean_motion_dot": -2.58e-06,
        "meta_mean_motion_ddot": 0,
        "tle_line1": "1 39613U 14010B   25354.58867610 -.00000258  00000+0  00000+0 0  9992",
        "tle_line2": "2 39613   0.0178 326.0495 0001029 324.7522 150.3983  1.00271282 42712"
      },
      "geometry": {
        "type": "Point",
        "coordinates": [
          -150.6018815052952,
          -0.03131634151571749
        ]
      }
    }
  ]
}